{"type":"FeatureCollection","features":[{"type":"Feature","properties":{"id":"stop-01012","busStopCode":"01012","description":"Hotel Grand Pacific","roadName":"Victoria St","source":"lta-datamall"},"geometry":{"type":"Point","coordinates":[103.85253591654006,1.29684825487647]}},{"type":"Feature","properties":{"id":"stop-01013","busStopCode":"01013","description":"St. Joseph's Ch","roadName":"Victoria St","source":"lta-datamall"},"geometry":{"type":"Point","coordinates":[103.8532247463225,1.29770970610083]}},{"type":"Feature","properties":{"id":"stop-01019","busStopCode":"01019","description":"Bras Basah Cplx","roadName":"Victoria St","source":"lta-datamall"},"geometry":{"type":"Point","coordinates":[103.85302201172507,1.29698951191332]}},{"type":"Feature","properties":{"id":"stop-01029","busStopCode":"01029","description":"Opp Natl Lib","roadName":"Nth Bridge Rd","source":"lta-datamall"},"geometry":{"type":"Point","coordinates":[103.85441422464267,1.2966729849642]}},{"type":"Feature","properties":{"id":"stop-W001","busStopCode":"W001","description":"WEST sample 1","roadName":"Fixture West Corridor","source":"lta-datamall"},"geometry":{"type":"Point","coordinates":[103.73379016666667,1.3087378333333333]}},{"type":"Feature","properties":{"id":"stop-W002","busStopCode":"W002","description":"WEST sample 2","roadName":"Fixture West Corridor","source":"lta-datamall"},"geometry":{"type":"Point","coordinates":[103.75299533333333,1.3144378333333333]}},{"type":"Feature","properties":{"id":"stop-W003","busStopCode":"W003","description":"WEST sample 3","roadName":"Fixture West Corridor","source":"lta-datamall"},"geometry":{"type":"Point","coordinates":[103.75647683333334,1.3100396666666667]}},{"type":"Feature","properties":{"id":"stop-W004","busStopCode":"W004","description":"WEST sample 4","roadName":"Fixture West Corridor","source":"lta-datamall"},"geometry":{"type":"Point","coordinates":[103.76039283333333,1.3090805]}},{"type":"Feature","properties":{"id":"stop-W005","busStopCode":"W005","description":"WEST sample 5","roadName":"Fixture West Corridor","source":"lta-datamall"},"geometry":{"type":"Point","coordinates":[103.76434116666667,1.312363]}},{"type":"Feature","properties":{"id":"stop-W006","busStopCode":"W006","description":"WEST sample 6","roadName":"Fixture West Corridor","source":"lta-datamall"},"geometry":{"type":"Point","coordinates":[103.793202,1.2757191666666667]}},{"type":"Feature","properties":{"id":"stop-W007","busStopCode":"W007","description":"WEST sample 7","roadName":"Fixture West Corridor","source":"lta-datamall"},"geometry":{"type":"Point","coordinates":[103.79662333333333,1.27424]}},{"type":"Feature","properties":{"id":"stop-W008","busStopCode":"W008","description":"WEST sample 8","roadName":"Fixture West Corridor","source":"lta-datamall"},"geometry":{"type":"Point","coordinates":[103.81719033333333,1.278829]}}]}
