{"type":"FeatureCollection","features":[{"type":"Feature","properties":{"id":"bus-DEMO-d1","serviceNo":"DEMO","direction":1,"source":"lta-datamall","note":"stop-to-stop straight segments; OSM snap comes later"},"geometry":{"type":"LineString","coordinates":[[103.85253591654006,1.29684825487647],[103.85302201172507,1.29698951191332],[103.8532247463225,1.29770970610083],[103.85441422464267,1.2966729849642]]}},{"type":"Feature","properties":{"id":"bus-DEMO-d2","serviceNo":"DEMO","direction":2,"source":"lta-datamall","note":"stop-to-stop straight segments; OSM snap comes later"},"geometry":{"type":"LineString","coordinates":[[103.85441422464267,1.2966729849642],[103.8532247463225,1.29770970610083],[103.85302201172507,1.29698951191332],[103.85253591654006,1.29684825487647]]}},{"type":"Feature","properties":{"id":"bus-WEST-d1","serviceNo":"WEST","direction":1,"source":"lta-datamall","note":"stop-to-stop straight segments; OSM snap comes later"},"geometry":{"type":"LineString","coordinates":[[103.73379016666667,1.3087378333333333],[103.75299533333333,1.3144378333333333],[103.75647683333334,1.3100396666666667],[103.76039283333333,1.3090805],[103.76434116666667,1.312363],[103.793202,1.2757191666666667],[103.79662333333333,1.27424],[103.81719033333333,1.278829]]}}]}
